FENGYUN 1C DEB          
1 30950U 99025BAQ 17344.93117144  .00010278  00000-0  59499-3 0  9998
2 30950  99.2304 152.2472 0042265 117.4887 243.0644 15.11734781199273
